[{"OBJECT_NAME":"STARLINK-34833","OBJECT_ID":"2025-176W","EPOCH":"2026-03-09T11:01:14.397024","MEAN_MOTION":15.3017599,"ECCENTRICITY":0.00010283,"INCLINATION":53.1574,"RA_OF_ASC_NODE":153.9056,"ARG_OF_PERICENTER":74.9373,"MEAN_ANOMALY":285.1742,"EPHEMERIS_TYPE":0,"CLASSIFICATION_TYPE":"U","NORAD_CAT_ID":65218,"ELEMENT_SET_NO":999,"REV_AT_EPOCH":3308,"BSTAR":0.0010451078,"MEAN_MOTION_DOT":0.00030699,"MEAN_MOTION_DDOT":0},{"OBJECT_NAME":"CZ-6A DEB","OBJECT_ID":"2022-151DE","EPOCH":"2026-03-09T09:45:43.657920","MEAN_MOTION":15.34292219,"ECCENTRICITY":0.00393756,"INCLINATION":99.0022,"RA_OF_ASC_NODE":218.5596,"ARG_OF_PERICENTER":192.6197,"MEAN_ANOMALY":167.4059,"EPHEMERIS_TYPE":0,"CLASSIFICATION_TYPE":"U","NORAD_CAT_ID":54359,"ELEMENT_SET_NO":999,"REV_AT_EPOCH":10560,"BSTAR":0.0065240017,"MEAN_MOTION_DOT":0.00228186,"MEAN_MOTION_DDOT":0}]
